[
    {
        "Altitude(m)": 604221.2094086292,
        "Argument of Periapsis(deg)": 0.0,
        "Eccentricity": 0.0,
        "Inclination(deg)": 60.0,
        "Latitude(deg)": 14.117274831855521,
        "Longitude(deg)": 3.3341224859646474,
        "Mean Anomaly(deg)": 16.363599999999998,
        "RAAN(deg)": 95.0,
        "Satellite Name": "Test1 419",
        "Satellite Number": 419,
        "Semi-Major Axis(m)": 6980739.136638005,
        "Time(s)": 0
    },
    {
        "Altitude(m)": 604235.3506121357,
        "Argument of Periapsis(deg)": 0.00010418945913296404,
        "Eccentricity": 0.0,
        "Inclination(deg)": 60.0,
        "Latitude(deg)": 14.651672227784136,
        "Longitude(deg)": 3.622568230603656,
        "Mean Anomaly(deg)": 16.983706145461838,
        "RAAN(deg)": 94.99957995086027,
        "Satellite Name": "Test1 419",
        "Satellite Number": 419,
        "Semi-Major Axis(m)": 6980739.136638005,
        "Time(s)": 10
    }
]